[
    {
        "Altitude(m)": 610399.5738507307,
        "Argument of Periapsis(deg)": 0.0,
        "Eccentricity": 0.0,
        "Inclination(deg)": 60.0,
        "Latitude(deg)": 52.111459123799236,
        "Longitude(deg)": 72.58423716052394,
        "Mean Anomaly(deg)": 65.45449999999998,
        "RAAN(deg)": 125.00000000000001,
        "Satellite Name": "Test1 554",
        "Satellite Number": 554,
        "Semi-Major Axis(m)": 6980739.136638005,
        "Time(s)": 0
    },
    {
        "Altitude(m)": 610481.7250515232,
        "Argument of Periapsis(deg)": 0.00010418945913296404,
        "Eccentricity": 0.0,
        "Inclination(deg)": 60.0,
        "Latitude(deg)": 52.47106208938844,
        "Longitude(deg)": 73.366374687133,
        "Mean Anomaly(deg)": 66.07460614546183,
        "RAAN(deg)": 124.99957995086027,
        "Satellite Name": "Test1 554",
        "Satellite Number": 554,
        "Semi-Major Axis(m)": 6980739.136638005,
        "Time(s)": 10
    }
]